[{"lat":37.7181047,"log":-25.372789,"pincode":"9680-423","city":"Ponta da Garça"},
    {"lat":41.5121975,"log":-8.3531169,"pincode":"4890-011","city":"Boucinha"},
    {"lat":29.54,"log":-98.42,"pincode":"78265","city":"San Antonio"},
    {"lat":2.9405941,"log":9.9101915,"pincode":null,"city":"Kribi"},
    {"lat":46.0261155,"log":16.0446553,"pincode":"49246","city":"Selnica"},
    {"lat":33.833797,"log":35.544145,"pincode":null,"city":"Baabda"},
    {"lat":48.7823921,"log":2.368326,"pincode":"94809 CEDEX","city":"Villejuif"},
    {"lat":38.6606177,"log":-8.9867835,"pincode":"2860-305","city":"Alto de São Sebastião"},
    {"lat":43.0429124,"log":1.9038837,"pincode":"69367 CEDEX 07","city":"Lyon"},
    {"lat":47.2388995,"log":29.3838141,"pincode":"MD-4006","city":"Maiac"},
    {"lat":"-6.8787","log":"113.9035","pincode":null,"city":"Talondang"},
    {"lat":33.685735,"log":-5.3677844,"pincode":null,"city":"El Hajeb"},
    {"lat":54.8151488,"log":20.2520662,"pincode":"346527","city":"Kaliningrad"},
    {"lat":48.6299901,"log":24.472416,"pincode":null,"city":"Bytkiv"},
    {"lat":59.3409179,"log":18.0754478,"pincode":"102 46","city":"Stockholm"},
    {"lat":-31.485706,"log":-64.2129282,"pincode":"6354","city":"La Cumbre"},
    {"lat":48.7381259,"log":2.3536083,"pincode":"94659 CEDEX 1","city":"Rungis"},
    {"lat":26.665617,"log":119.547932,"pincode":null,"city":"Ningde"},
    {"lat":9.316446,"log":16.1610343,"pincode":null,"city":"Béré"},
    {"lat":37.8967329,"log":22.9286014,"pincode":null,"city":"Examília"},
    {"lat":14.7049761,"log":121.0065736,"pincode":"3114","city":"Santo Rosario"},
    {"lat":9.9889044,"log":-84.2364028,"pincode":"11204","city":"Tejar"},
    {"lat":48.5271841,"log":7.7424053,"pincode":"67404 CEDEX","city":"Illkirch-Graffenstaden"},
    {"lat":-8.6423128,"log":120.4559258,"pincode":null,"city":"Waso"},
    {"lat":61.5792581,"log":26.0188652,"pincode":"19601","city":"Hartola"},
    {"lat":27.511611,"log":112.726555,"pincode":null,"city":"Huashi"},
    {"lat":14.6688068,"log":121.1138058,"pincode":"7213","city":"Concepcion"},
    {"lat":-16.5030766,"log":-68.1346594,"pincode":null,"city":"San Pedro"},
    {"lat":2.9716241,"log":45.5334515,"pincode":null,"city":"Mahaddayweyne"},
    {"lat":45.6479728,"log":13.7829495,"pincode":"34129","city":"Trieste"},
    {"lat":58.3776252,"log":26.7290062,"pincode":null,"city":"Tartu"},
    {"lat":4.2867309,"log":-74.812294,"pincode":"733517","city":"Flandes"},
    {"lat":"-6.598","log":"106.2248","pincode":null,"city":"Kaduketug"},
    {"lat":9.7076223,"log":-68.4352835,"pincode":null,"city":"Tinaco"},
    {"lat":-3.8847265,"log":130.897445,"pincode":null,"city":"Geser"},
    {"lat":-7.6569277,"log":107.7073688,"pincode":null,"city":"Mancagahar"},
    {"lat":59.4051316,"log":13.5451563,"pincode":"654 68","city":"Karlstad"},
    {"lat":53.7131425,"log":-111.743338,"pincode":"J9H","city":"Two Hills"},
    {"lat":-7.1234674,"log":111.8479156,"pincode":null,"city":"Sumberrejo"},
    {"lat":41.4390535,"log":-6.3931513,"pincode":"5210-325","city":"Fonte da Aldeia"},
    {"lat":56.0633738,"log":14.5468659,"pincode":"294 21","city":"Sölvesborg"},
    {"lat":49.8831056,"log":18.3174408,"pincode":"735 51","city":"Vrbice"},
    {"lat":31.5033912,"log":31.8410083,"pincode":null,"city":"‘Izbat al Burj"},
    {"lat":55.7133263,"log":37.8049211,"pincode":"172372","city":"Vykhino-Zhulebino"},
    {"lat":6.2368262,"log":125.0897383,"pincode":"9504","city":"Polomolok"},
    {"lat":13.7583256,"log":-87.16535,"pincode":null,"city":"Armenia"},
    {"lat":42.3369976,"log":23.5527975,"pincode":"2000","city":"Samokov"},
    {"lat":55.2195122,"log":75.9815939,"pincode":"249929","city":"Yukhnov"},
    {"lat":50.069277,"log":22.442238,"pincode":"37-240","city":"Grzęska"},
    {"lat":14.18364,"log":122.899983,"pincode":"5048","city":"Banocboc"},
    {"lat":-10.9057388,"log":-37.681228,"pincode":"49400-000","city":"Lagarto"},
    {"lat":40.8806112,"log":26.045885,"pincode":null,"city":"Loutrós"},
    {"lat":-41.277848,"log":174.7763921,"pincode":"6160","city":"Kelburn"},
    {"lat":-3.1190275,"log":-60.0217314,"pincode":"69000-000","city":"Manaus"},
    {"lat":62.6571846,"log":26.0472266,"pincode":"44280","city":"Sumiainen"},
    {"lat":57.782249,"log":13.4161644,"pincode":"523 32","city":"Ulricehamn"},
    {"lat":"49.03306","log":"-119.45237","pincode":"N9V","city":"Osoyoos"},
    {"lat":-26.4527477,"log":31.0421102,"pincode":null,"city":"Mhlambanyatsi"},
    {"lat":52.99166,"log":17.4884299,"pincode":"89-240","city":"Kcynia"},
    {"lat":-13.77085,"log":-73.536636,"pincode":null,"city":"Huancaray"},
    {"lat":"-14.34147","log":"-71.46311","pincode":null,"city":"Cahuanuyo"},
    {"lat":31.236833,"log":121.532286,"pincode":null,"city":"Dongfeng"},
    {"lat":49.7995264,"log":18.4900139,"pincode":"735 35","city":"Horní Suchá"},
    {"lat":-2.2695575,"log":40.9006408,"pincode":null,"city":"Lamu"},
    {"lat":27.70841,"log":118.79264,"pincode":null,"city":"Weitian"},
    {"lat":-7.3682379,"log":112.7554346,"pincode":null,"city":"Pabean"},
    {"lat":46.8087637,"log":1.6937962,"pincode":"36019 CEDEX","city":"Châteauroux"},
    {"lat":35.7013041,"log":52.0586252,"pincode":null,"city":"Damāvand"},
    {"lat":49.6475739,"log":6.2573108,"pincode":"L-6948","city":"Niederanven"},
    {"lat":34.620202,"log":112.453926,"pincode":null,"city":"Luojiang"},
    {"lat":15.2286069,"log":-91.7859274,"pincode":"12006","city":"San Miguel Ixtahuacán"},
    {"lat":-31.948311,"log":115.865678,"pincode":null,"city":"Baolin"},
    {"lat":-16.2382608,"log":-44.4370606,"pincode":"39330-000","city":"Brasília de Minas"},
    {"lat":-28.832995,"log":-52.5745556,"pincode":"99300-000","city":"Soledade"},
    {"lat":-6.6656231,"log":106.3438367,"pincode":null,"city":"Cikuning"},
    {"lat":-6.0834773,"log":145.3862638,"pincode":null,"city":"Goroka"},
    {"lat":-7.5429807,"log":110.8135688,"pincode":null,"city":"Banjarsari"},
    {"lat":-23.1087262,"log":-50.3675124,"pincode":"86360-000","city":"Bandeirantes"},
    {"lat":-8.557437,"log":114.0369075,"pincode":null,"city":"Sumberagung"},
    {"lat":-1.2545772,"log":31.4199035,"pincode":null,"city":"Kyaka"},
    {"lat":38.119756,"log":23.8661305,"pincode":null,"city":"Dhrosiá"},
    {"lat":14.5491865,"log":121.0186949,"pincode":"3110","city":"Zaragoza"},
    {"lat":4.6096768,"log":101.1064003,"pincode":"30554","city":"Ipoh"},
    {"lat":31.874138,"log":103.573122,"pincode":null,"city":"Baixi"},
    {"lat":34.5235452,"log":43.7190392,"pincode":null,"city":"Al ‘Awjah"},
    {"lat":39.1934799,"log":117.0775313,"pincode":null,"city":"Hanjiashu"},
    {"lat":-8.3765619,"log":115.1918802,"pincode":null,"city":"Mekarsari"},
    {"lat":45.8010928,"log":15.7110481,"pincode":"10430","city":"Samobor"},
    {"lat":43.3715256,"log":24.5714432,"pincode":"5885","city":"Pleven"},
    {"lat":35.719396,"log":117.953621,"pincode":null,"city":"Mengyin"},
    {"lat":49.9146804,"log":18.0123649,"pincode":"747 91","city":"Štítina"},
    {"lat":"63.06101","log":"179.35046","pincode":"442379","city":"Beringovskiy"},
    {"lat":27.5566857,"log":107.0336505,"pincode":null,"city":"Longping"},
    {"lat":"56.37975","log":"37.62774","pincode":"307374","city":"Budenovetc"},
    {"lat":27.622444,"log":112.410417,"pincode":null,"city":"Lishan"},
    {"lat":47.9370871,"log":29.6288401,"pincode":null,"city":"Balta"},
    {"lat":50.9168212,"log":5.9799297,"pincode":"6414","city":"Heerlen"},
    {"lat":-7.002985,"log":112.282503,"pincode":null,"city":"Jangkungkusumo"},
    {"lat":-38.0033365,"log":-57.5430848,"pincode":"1871","city":"Buenos Aires"},
    {"lat":30.368126,"log":102.814531,"pincode":null,"city":"Baoxing"}]